[{"OBJECT_NAME":"STARLINK-30396","OBJECT_ID":"2023-151A","EPOCH":"2026-03-09T04:06:00.336672","MEAN_MOTION":15.26736531,"ECCENTRICITY":0.00015868,"INCLINATION":43.0003,"RA_OF_ASC_NODE":339.234,"ARG_OF_PERICENTER":268.3218,"MEAN_ANOMALY":91.7451,"EPHEMERIS_TYPE":0,"CLASSIFICATION_TYPE":"U","NORAD_CAT_ID":57964,"ELEMENT_SET_NO":999,"REV_AT_EPOCH":13568,"BSTAR":-7.9425836e-5,"MEAN_MOTION_DOT":-2.389e-5,"MEAN_MOTION_DDOT":0},{"OBJECT_NAME":"KUIPER-00274","OBJECT_ID":"2026-030AE","EPOCH":"2026-03-09T22:00:01.999584","MEAN_MOTION":15.29896925,"ECCENTRICITY":0.00182929,"INCLINATION":51.8831,"RA_OF_ASC_NODE":218.6923,"ARG_OF_PERICENTER":71.2033,"MEAN_ANOMALY":115.2248,"EPHEMERIS_TYPE":0,"CLASSIFICATION_TYPE":"U","NORAD_CAT_ID":67792,"ELEMENT_SET_NO":999,"REV_AT_EPOCH":410,"BSTAR":0.0017989756,"MEAN_MOTION_DOT":0.00053102,"MEAN_MOTION_DDOT":0}]
